DMSP 5D-3 F16 (USA 172) 
1 28054U 03048A   26198.16048825 -.00000052  00000+0 -34070-5 0  9991
2 28054  98.9897 222.1860 0008062  66.2965  13.2582 14.14484770173723
METEOSAT-9 (MSG-2)      
1 28912U 05049B   26197.95449463  .00000110  00000+0  00000+0 0  9999
2 28912   9.4271  53.8702 0002277 356.8318 273.3582  1.00272968  7297
DMSP 5D-3 F17 (USA 191) 
1 29522U 06050A   26198.15123984 -.00000042  00000+0  57894-6 0  9995
2 29522  98.7388 204.1093 0009618 337.0994  22.9749 14.14996178 16665
FENGYUN 3A              
1 32958U 08026A   26197.86180095  .00000024  00000+0  32095-4 0  9993
2 32958  98.6886 138.1408 0009615  47.6102 312.5887 14.19576680939619
EWS-G3 (GOES 14)        
1 35491U 09033A   26198.11086617 -.00000370  00000+0  00000+0 0  9992
2 35491   1.7651  82.6695 0001981  39.6911 336.3560  1.00097221  6899
DMSP 5D-3 F18 (USA 210) 
1 35951U 09057A   26198.12449751  .00000171  00000+0  11167-3 0  9990
2 35951  98.9057 178.8316 0011343 160.1256 200.0361 14.14912506863822
EWS-G2 (GOES 15)        
1 36411U 10008A   26198.19419796  .00000012  00000+0  00000+0 0  9997
2 36411   1.3585  82.4353 0005306  53.9954 291.7823  1.00268766 59937
COMS 1                  
1 36744U 10032A   26198.11628975 -.00000244  00000+0  00000+0 0  9994
2 36744   4.8803  74.9950 0011269  15.0331 201.2004  0.99167487 51382
FENGYUN 3B              
1 37214U 10059A   26198.14975156 -.00000296  00000+0 -12957-3 0  9991
2 37214  98.9601 244.2889 0023171 101.2966 333.9276 14.14845779811663
SUOMI NPP               
1 37849U 11061A   26198.15609022  .00000022  00000+0  31537-4 0  9997
2 37849  98.7955 138.8285 0000836 203.4276 156.6862 14.19522782762697
METEOSAT-10 (MSG-3)     
1 38552U 12035B   26197.76898441 -.00000019  00000+0  00000+0 0  9995
2 38552   4.7400  60.8739 0001221  16.6665 133.9327  1.00271271 51150
METOP-B                 
1 38771U 12049A   26198.17611997  .00000038  00000+0  37383-4 0  9997
2 38771  98.6489 249.0746 0001148 244.1857 115.9202 14.21446731717524
INSAT-3D                
1 39216U 13038B   26198.16503226 -.00000350  00000+0  00000+0 0  9994
2 39216   2.0017  82.1600 0000547  74.0068 327.7041  1.00267749 47383
FENGYUN 3C              
1 39260U 13052A   26198.22132807  .00000005  00000+0  23793-4 0  9994
2 39260  98.5000 170.7204 0013591 299.6803  60.3018 14.15761018662816
METEOR-M 2              
1 40069U 14037A   26198.20205296  .00000276  00000+0  14525-3 0  9990
2 40069  98.5131 172.8808 0005059 320.5907  39.4902 14.21470186623582
HIMAWARI-8              
1 40267U 14060A   26198.15392301 -.00000286  00000+0  00000+0 0  9995
2 40267   0.0180  26.8711 0001140 139.4281 324.7544  1.00270943 43067
FENGYUN 2G              
1 40367U 14090A   26198.07376858 -.00000314  00000+0  00000+0 0  9991
2 40367   5.7125  72.4526 0004191 173.4964 174.8761  1.00280117 42298
METEOSAT-11 (MSG-4)     
1 40732U 15034A   26198.10391889  .00000050  00000+0  00000+0 0  9997
2 40732   3.2735  70.9183 0002124 354.7423 275.9293  1.00272456  7510
ELEKTRO-L 2             
1 41105U 15074A   26197.97987110 -.00000130  00000+0  00000+0 0  9998
2 41105   6.7669  70.1538 0000972 215.6867 347.2166  1.00272049 38807
SENTINEL-3A             
1 41335U 16011A   26198.16200873  .00000039  00000+0  34073-4 0  9990
2 41335  98.6236 265.1130 0001343  89.4648 270.6686 14.26740092542337
INSAT-3DR               
1 41752U 16054A   26198.06874189 -.00000087  00000+0  00000+0 0  9998
2 41752   0.0746  88.8309 0010504 181.0019 123.7957  1.00270905 36113
HIMAWARI-9              
1 41836U 16064A   26197.86799176 -.00000286  00000+0  00000+0 0  9992
2 41836   0.0313 261.7094 0001756 265.1821 221.0025  1.00270933 35504
GOES 16                 
1 41866U 16071A   26198.10462617 -.00000101  00000+0  00000+0 0  9994
2 41866   0.4090  85.4555 0000562  88.0473  54.3909  1.00271174 35400
FENGYUN 4A              
1 41882U 16077A   26198.22112032 -.00000368  00000+0  00000+0 0  9999
2 41882   2.3970  79.9388 0008467 159.7276 258.6952  1.00267052 35235
CYGFM05                 
1 41884U 16078A   26198.05206389  .00016094  00000+0  20855-3 0  9998
2 41884  34.9568  62.6339 0005617  56.6119 303.5142 15.57913672533418
CYGFM04                 
1 41885U 16078B   26197.92610275  .00021379  00000+0  22614-3 0  9994
2 41885  34.9327  29.6054 0004098 105.3496 254.7683 15.63154078533658
CYGFM02                 
1 41886U 16078C   26197.93078900  .00026622  00000+0  24656-3 0  9993
2 41886  34.9409  23.1954 0004871 108.2529 251.8729 15.66451663533838
CYGFM01                 
1 41887U 16078D   26198.02732789  .00016544  00000+0  20859-3 0  9990
2 41887  34.9398  63.6066 0005605  48.8240 311.2968 15.58633048533368
CYGFM08                 
1 41888U 16078E   26197.99754514  .00020144  00000+0  22703-3 0  9997
2 41888  34.9433  42.5652 0006003  88.9385 271.2029 15.61527441533630
CYGFM07                 
1 41890U 16078G   26197.95473282  .00020443  00000+0  22950-3 0  9992
2 41890  34.9450  31.1656 0004526 105.8002 254.3223 15.61635317533655
CYGFM03                 
1 41891U 16078H   26197.92594544  .00020201  00000+0  22695-3 0  9993
2 41891  34.9405  33.2870 0004347  86.5901 273.5322 15.61619716533626
